window._tle = "PEGASUS\n1 42784U 17036V   21215.82632965  .00001783  00000-0  74947-4 0  9998\n2 42784  97.2472 263.3794 0011799  21.2677 338.9049 15.24636773228578";
